{
  "norad_id": 61005,
  "name": "STARLINK-32284",
  "history": [
    {
      "epoch": "2026-03-28T21:58:16.631328Z",
      "apogee_km": 476.23664142013513,
      "perigee_km": 474.282600975499,
      "latitude_deg": -4.3908538908931464e-05,
      "longitude_deg": -179.57809451585317,
      "height_km": 476.38861152291514,
      "semi_major_axis_km": 6853.396621197817,
      "eccentricity": 0.00014256,
      "inclination_deg": 53.1625,
      "raan_deg": 336.3203,
      "arg_perigee_deg": 103.6646,
      "mean_anomaly_deg": 256.4513,
      "mean_motion_rev_day": 15.30185079
    },
    {
      "epoch": "2026-03-28T23:32:19.570848Z",
      "apogee_km": 476.1649084245555,
      "perigee_km": 474.3199786783525,
      "latitude_deg": 2.5611406584109116e-05,
      "longitude_deg": 156.54053500202278,
      "height_km": 476.3818441023754,
      "semi_major_axis_km": 6853.379443551454,
      "eccentricity": 0.0001346,
      "inclination_deg": 53.162,
      "raan_deg": 336.0155,
      "arg_perigee_deg": 105.1551,
      "mean_anomaly_deg": 254.9599,
      "mean_motion_rev_day": 15.30190832
    },
    {
      "epoch": "2026-03-29T23:03:07.022880Z",
      "apogee_km": 475.6505433006196,
      "perigee_km": 474.8445852758596,
      "latitude_deg": 8.957134015245284e-06,
      "longitude_deg": 158.32235424018285,
      "height_km": 475.8782048327277,
      "semi_major_axis_km": 6853.38456428824,
      "eccentricity": 5.88e-05,
      "inclination_deg": 53.16,
      "raan_deg": 331.4607,
      "arg_perigee_deg": 48.2137,
      "mean_anomaly_deg": 311.8914,
      "mean_motion_rev_day": 15.30189117
    },
    {
      "epoch": "2026-03-29T23:03:07.023744Z",
      "apogee_km": 475.65033769908405,
      "perigee_km": 474.8447908773969,
      "latitude_deg": 1.1018551911285722e-05,
      "longitude_deg": 158.3223521661667,
      "height_km": 475.8783418339683,
      "semi_major_axis_km": 6853.38456428824,
      "eccentricity": 5.877e-05,
      "inclination_deg": 53.16,
      "raan_deg": 331.4607,
      "arg_perigee_deg": 48.2137,
      "mean_anomaly_deg": 311.8914,
      "mean_motion_rev_day": 15.30189117
    },
    {
      "epoch": "2026-03-30T20:59:51.506880Z",
      "apogee_km": 475.99581372713874,
      "perigee_km": 474.4357165036881,
      "latitude_deg": 3.980083453348616e-05,
      "longitude_deg": -176.01324921190803,
      "height_km": 475.7679235370565,
      "semi_major_axis_km": 6853.352765115414,
      "eccentricity": 0.00011382,
      "inclination_deg": 53.1603,
      "raan_deg": 327.2117,
      "arg_perigee_deg": 63.645,
      "mean_anomaly_deg": 296.4668,
      "mean_motion_rev_day": 15.30199767
    },
    {
      "epoch": "2026-03-31T01:42:01.239552Z",
      "apogee_km": 475.92107122044035,
      "perigee_km": 474.5361430985449,
      "latitude_deg": -3.0780465245585316e-06,
      "longitude_deg": 112.34323311495814,
      "height_km": 475.9602158256372,
      "semi_major_axis_km": 6853.365607159492,
      "eccentricity": 0.00010104,
      "inclination_deg": 53.159,
      "raan_deg": 326.3019,
      "arg_perigee_deg": 76.0657,
      "mean_anomaly_deg": 284.0456,
      "mean_motion_rev_day": 15.30195466
    }
  ]
}